[{"COMMENT":"GENERATED VIA SPACETRACK.ORG API","ORIGINATOR":"18 SPCS","NORAD_CAT_ID":"43476","OBJECT_NAME":"GRACE-FO 1","OBJECT_TYPE":"PAYLOAD","CLASSIFICATION_TYPE":"U","INTLDES":"18047A","EPOCH":"2023-09-25 12:22:08","EPOCH_MICROSECONDS":"240160","MEAN_MOTION":"15.26870804","ECCENTRICITY":"0.0014522","INCLINATION":"88.99","RA_OF_ASC_NODE":"335.548","ARG_OF_PERICENTER":"23.134","MEAN_ANOMALY":"337.0559","EPHEMERIS_TYPE":"0","ELEMENT_SET_NO":"999","REV_AT_EPOCH":"29730","BSTAR":"0.00018898","MEAN_MOTION_DOT":"0.00005028","MEAN_MOTION_DDOT":"0","FILE":"4016340","TLE_LINE0":"0 GRACE-FO 1","TLE_LINE1":"1 43476U 18047A   23268.51537315  .00005028  00000-0  18898-3 0  9997","TLE_LINE2":"2 43476  88.9900 335.5480 0014522  23.1340 337.0559 15.26870804297309","OBJECT_ID":"2018-047A","OBJECT_NUMBER":"43476","SEMIMAJOR_AXIS":"6863.311","PERIOD":"94.311","APOGEE":"495.142","PERIGEE":"475.209","DECAYED":"0"},{"COMMENT":"GENERATED VIA SPACETRACK.ORG API","ORIGINATOR":"18 SPCS","NORAD_CAT_ID":"43476","OBJECT_NAME":"GRACE-FO 1","OBJECT_TYPE":"PAYLOAD","CLASSIFICATION_TYPE":"U","INTLDES":"18047A","EPOCH":"2023-09-25 18:39:38","EPOCH_MICROSECONDS":"540160","MEAN_MOTION":"15.26873797","ECCENTRICITY":"0.0014464","INCLINATION":"88.9901","RA_OF_ASC_NODE":"335.5124","ARG_OF_PERICENTER":"22.2089","MEAN_ANOMALY":"337.9783","EPHEMERIS_TYPE":"0","ELEMENT_SET_NO":"999","REV_AT_EPOCH":"29734","BSTAR":"0.00019356","MEAN_MOTION_DOT":"0.00005149","MEAN_MOTION_DDOT":"0","FILE":"4016384","TLE_LINE0":"0 GRACE-FO 1","TLE_LINE1":"1 43476U 18047A   23268.77752940  .00005149  00000-0  19356-3 0  9992","TLE_LINE2":"2 43476  88.9901 335.5124 0014464  22.2089 337.9783 15.26873797297346","OBJECT_ID":"2018-047A","OBJECT_NUMBER":"43476","SEMIMAJOR_AXIS":"6863.302","PERIOD":"94.310","APOGEE":"495.094","PERIGEE":"475.239","DECAYED":"0"},{"COMMENT":"GENERATED VIA SPACETRACK.ORG API","ORIGINATOR":"18 SPCS","NORAD_CAT_ID":"43476","OBJECT_NAME":"GRACE-FO 1","OBJECT_TYPE":"PAYLOAD","CLASSIFICATION_TYPE":"U","INTLDES":"18047A","EPOCH":"2023-09-25 21:48:23","EPOCH_MICROSECONDS":"681952","MEAN_MOTION":"15.26874712","ECCENTRICITY":"0.0014439","INCLINATION":"88.9901","RA_OF_ASC_NODE":"335.4946","ARG_OF_PERICENTER":"21.7612","MEAN_ANOMALY":"338.4247","EPHEMERIS_TYPE":"0","ELEMENT_SET_NO":"999","REV_AT_EPOCH":"29736","BSTAR":"0.00018515","MEAN_MOTION_DOT":"0.00004927","MEAN_MOTION_DDOT":"0","FILE":"4016730","TLE_LINE0":"0 GRACE-FO 1","TLE_LINE1":"1 43476U 18047A   23268.90860743  .00004927  00000-0  18515-3 0  9997","TLE_LINE2":"2 43476  88.9901 335.4946 0014439  21.7612 338.4247 15.26874712297366","OBJECT_ID":"2018-047A","OBJECT_NUMBER":"43476","SEMIMAJOR_AXIS":"6863.299","PERIOD":"94.310","APOGEE":"495.074","PERIGEE":"475.254","DECAYED":"0"},{"COMMENT":"GENERATED VIA SPACETRACK.ORG API","ORIGINATOR":"18 SPCS","NORAD_CAT_ID":"43476","OBJECT_NAME":"GRACE-FO 1","OBJECT_TYPE":"PAYLOAD","CLASSIFICATION_TYPE":"U","INTLDES":"18047A","EPOCH":"2023-09-26 11:57:46","EPOCH_MICROSECONDS":"677024","MEAN_MOTION":"15.26881129","ECCENTRICITY":"0.0014334","INCLINATION":"88.9901","RA_OF_ASC_NODE":"335.4146","ARG_OF_PERICENTER":"19.6439","MEAN_ANOMALY":"340.536","EPHEMERIS_TYPE":"0","ELEMENT_SET_NO":"999","REV_AT_EPOCH":"29745","BSTAR":"0.00018963","MEAN_MOTION_DOT":"0.00005046","MEAN_MOTION_DDOT":"0","FILE":"4017272","TLE_LINE0":"0 GRACE-FO 1","TLE_LINE1":"1 43476U 18047A   23269.49845691  .00005046  00000-0  18963-3 0  9997","TLE_LINE2":"2 43476  88.9901 335.4146 0014334  19.6439 340.5360 15.26881129297455","OBJECT_ID":"2018-047A","OBJECT_NUMBER":"43476","SEMIMAJOR_AXIS":"6863.280","PERIOD":"94.310","APOGEE":"494.982","PERIGEE":"475.307","DECAYED":"0"},{"COMMENT":"GENERATED VIA SPACETRACK.ORG API","ORIGINATOR":"18 SPCS","NORAD_CAT_ID":"43476","OBJECT_NAME":"GRACE-FO 1","OBJECT_TYPE":"PAYLOAD","CLASSIFICATION_TYPE":"U","INTLDES":"18047A","EPOCH":"2023-09-26 21:24:01","EPOCH_MICROSECONDS":"885536","MEAN_MOTION":"15.26885249","ECCENTRICITY":"0.0014257","INCLINATION":"88.9901","RA_OF_ASC_NODE":"335.3612","ARG_OF_PERICENTER":"18.2293","MEAN_ANOMALY":"341.9464","EPHEMERIS_TYPE":"0","ELEMENT_SET_NO":"999","REV_AT_EPOCH":"29751","BSTAR":"0.00018684","MEAN_MOTION_DOT":"0.00004973","MEAN_MOTION_DDOT":"0","FILE":"4017567","TLE_LINE0":"0 GRACE-FO 1","TLE_LINE1":"1 43476U 18047A   23269.89168849  .00004973  00000-0  18684-3 0  9992","TLE_LINE2":"2 43476  88.9901 335.3612 0014257  18.2293 341.9464 15.26885249297513","OBJECT_ID":"2018-047A","OBJECT_NUMBER":"43476","SEMIMAJOR_AXIS":"6863.267","PERIOD":"94.310","APOGEE":"494.917","PERIGEE":"475.347","DECAYED":"0"},{"COMMENT":"GENERATED VIA SPACETRACK.ORG API","ORIGINATOR":"18 SPCS","NORAD_CAT_ID":"43476","OBJECT_NAME":"GRACE-FO 1","OBJECT_TYPE":"PAYLOAD","CLASSIFICATION_TYPE":"U","INTLDES":"18047A","EPOCH":"2023-09-27 00:32:46","EPOCH_MICROSECONDS":"942656","MEAN_MOTION":"15.26886541","ECCENTRICITY":"0.0014242","INCLINATION":"88.9901","RA_OF_ASC_NODE":"335.3434","ARG_OF_PERICENTER":"17.7433","MEAN_ANOMALY":"342.4311","EPHEMERIS_TYPE":"0","ELEMENT_SET_NO":"999","REV_AT_EPOCH":"29753","BSTAR":"0.0001876","MEAN_MOTION_DOT":"0.00004993","MEAN_MOTION_DDOT":"0","FILE":"4017616","TLE_LINE0":"0 GRACE-FO 1","TLE_LINE1":"1 43476U 18047A   23270.02276554  .00004993  00000-0  18760-3 0  9999","TLE_LINE2":"2 43476  88.9901 335.3434 0014242  17.7433 342.4311 15.26886541297534","OBJECT_ID":"2018-047A","OBJECT_NUMBER":"43476","SEMIMAJOR_AXIS":"6863.263","PERIOD":"94.310","APOGEE":"494.903","PERIGEE":"475.354","DECAYED":"0"},{"COMMENT":"GENERATED VIA SPACETRACK.ORG API","ORIGINATOR":"18 SPCS","NORAD_CAT_ID":"43476","OBJECT_NAME":"GRACE-FO 1","OBJECT_TYPE":"PAYLOAD","CLASSIFICATION_TYPE":"U","INTLDES":"18047A","EPOCH":"2023-09-27 11:33:24","EPOCH_MICROSECONDS":"584256","MEAN_MOTION":"15.26890143","ECCENTRICITY":"0.0014153","INCLINATION":"88.99","RA_OF_ASC_NODE":"335.2812","ARG_OF_PERICENTER":"16.1086","MEAN_ANOMALY":"344.061","EPHEMERIS_TYPE":"0","ELEMENT_SET_NO":"999","REV_AT_EPOCH":"29760","BSTAR":"0.00017194","MEAN_MOTION_DOT":"0.00004579","MEAN_MOTION_DDOT":"0","FILE":"4018203","TLE_LINE0":"0 GRACE-FO 1","TLE_LINE1":"1 43476U 18047A   23270.48153454  .00004579  00000-0  17194-3 0  9992","TLE_LINE2":"2 43476  88.9900 335.2812 0014153  16.1086 344.0610 15.26890143297601","OBJECT_ID":"2018-047A","OBJECT_NUMBER":"43476","SEMIMAJOR_AXIS":"6863.253","PERIOD":"94.309","APOGEE":"494.831","PERIGEE":"475.404","DECAYED":"0"},{"COMMENT":"GENERATED VIA SPACETRACK.ORG API","ORIGINATOR":"18 SPCS","NORAD_CAT_ID":"43476","OBJECT_NAME":"GRACE-FO 1","OBJECT_TYPE":"PAYLOAD","CLASSIFICATION_TYPE":"U","INTLDES":"18047A","EPOCH":"2023-09-28 03:17:09","EPOCH_MICROSECONDS":"589056","MEAN_MOTION":"15.26895993","ECCENTRICITY":"0.0014036","INCLINATION":"88.9898","RA_OF_ASC_NODE":"335.1923","ARG_OF_PERICENTER":"13.6858","MEAN_ANOMALY":"346.4769","EPHEMERIS_TYPE":"0","ELEMENT_SET_NO":"999","REV_AT_EPOCH":"29770","BSTAR":"0.00016779","MEAN_MOTION_DOT":"0.0000447","MEAN_MOTION_DDOT":"0","FILE":"4018522","TLE_LINE0":"0 GRACE-FO 1","TLE_LINE1":"1 43476U 18047A   23271.13691654  .00004470  00000-0  16779-3 0  9992","TLE_LINE2":"2 43476  88.9898 335.1923 0014036  13.6858 346.4769 15.26895993297708","OBJECT_ID":"2018-047A","OBJECT_NUMBER":"43476","SEMIMAJOR_AXIS":"6863.235","PERIOD":"94.309","APOGEE":"494.733","PERIGEE":"475.467","DECAYED":"0"},{"COMMENT":"GENERATED VIA SPACETRACK.ORG API","ORIGINATOR":"18 SPCS","NORAD_CAT_ID":"43476","OBJECT_NAME":"GRACE-FO 1","OBJECT_TYPE":"PAYLOAD","CLASSIFICATION_TYPE":"U","INTLDES":"18047A","EPOCH":"2023-09-28 14:17:46","EPOCH_MICROSECONDS":"970592","MEAN_MOTION":"15.26899682","ECCENTRICITY":"0.0013943","INCLINATION":"88.9897","RA_OF_ASC_NODE":"335.1301","ARG_OF_PERICENTER":"11.9867","MEAN_ANOMALY":"348.1711","EPHEMERIS_TYPE":"0","ELEMENT_SET_NO":"999","REV_AT_EPOCH":"29777","BSTAR":"0.00016149","MEAN_MOTION_DOT":"0.00004303","MEAN_MOTION_DDOT":"0","FILE":"4019158","TLE_LINE0":"0 GRACE-FO 1","TLE_LINE1":"1 43476U 18047A   23271.59568253  .00004303  00000-0  16149-3 0  9996","TLE_LINE2":"2 43476  88.9897 335.1301 0013943  11.9867 348.1711 15.26899682297776","OBJECT_ID":"2018-047A","OBJECT_NUMBER":"43476","SEMIMAJOR_AXIS":"6863.224","PERIOD":"94.309","APOGEE":"494.658","PERIGEE":"475.520","DECAYED":"0"},{"COMMENT":"GENERATED VIA SPACETRACK.ORG API","ORIGINATOR":"18 SPCS","NORAD_CAT_ID":"43476","OBJECT_NAME":"GRACE-FO 1","OBJECT_TYPE":"PAYLOAD","CLASSIFICATION_TYPE":"U","INTLDES":"18047A","EPOCH":"2023-09-28 22:09:39","EPOCH_MICROSECONDS":"330432","MEAN_MOTION":"15.26902088","ECCENTRICITY":"0.0013892","INCLINATION":"88.9895","RA_OF_ASC_NODE":"335.0856","ARG_OF_PERICENTER":"10.7489","MEAN_ANOMALY":"349.4054","EPHEMERIS_TYPE":"0","ELEMENT_SET_NO":"999","REV_AT_EPOCH":"29782","BSTAR":"0.00015563","MEAN_MOTION_DOT":"0.00004149","MEAN_MOTION_DDOT":"0","FILE":"4019377","TLE_LINE0":"0 GRACE-FO 1","TLE_LINE1":"1 43476U 18047A   23271.92337188  .00004149  00000-0  15563-3 0  9991","TLE_LINE2":"2 43476  88.9895 335.0856 0013892  10.7489 349.4054 15.26902088297823","OBJECT_ID":"2018-047A","OBJECT_NUMBER":"43476","SEMIMAJOR_AXIS":"6863.217","PERIOD":"94.309","APOGEE":"494.616","PERIGEE":"475.547","DECAYED":"0"}]